*******************************************************************************
Ephemeris / WWW_USER Mon Jul 15 19:23:31 2024 Pasadena, USA      / Horizons    
*******************************************************************************
Target body name: (2018 RB1)                      {source: JPL#5}
Center body name: Earth (399)                     {source: DE441}
Center-site name: Gemini South Obs., Cerro Pachon
*******************************************************************************
Start time      : A.D. 2018-Dec-17 23:51:00.0000 UT      
Stop  time      : A.D. 2018-Dec-18 09:27:00.0000 UT      
Step-size       : 1 minutes
*******************************************************************************
Target pole/equ : undefined
Target radii    : undefined                                                    
Center geodetic : 289.2634, -30.2406227, 2.71233  {E-lon(deg),Lat(deg),Alt(km)}
Center cylindric: 289.2634,5517.21435,-3194.81213 {E-lon(deg),Dxy(km),Dz(km)}
Center pole/equ : ITRF93                          {East-longitude positive}
Center radii    : 6378.137, 6378.137, 6356.752 km {Equator_a, b, pole_c}       
Target primary  : Sun
Vis. interferer : MOON (R_eq= 1737.400) km        {source: DE441}
Rel. light bend : Sun                             {source: DE441}
Rel. lght bnd GM: 1.3271E+11 km^3/s^2                                          
Small-body perts: Yes                             {source: SB441-N16}
Atmos refraction: NO (AIRLESS)
RA format       : HMS
Time format     : CAL 
Calendar mode   : Mixed Julian/Gregorian
RTS-only print  : NO       
EOP file        : eop.240715.p241008                                           
EOP coverage    : DATA-BASED 1962-JAN-20 TO 2024-JUL-15. PREDICTS-> 2024-OCT-07
Units conversion: 1 au= 149597870.700 km, c= 299792.458 km/s, 1 day= 86400.0 s 
Table cut-offs 1: Elevation (-90.0deg=NO ),Airmass (>38.000=NO), Daylight (YES)
Table cut-offs 2: Solar elongation (  0.0,180.0=NO ),Local Hour Angle( 0.0=NO )
Table cut-offs 3: RA/DEC angular rate (     0.0=NO )                           
*******************************************************************************
Initial IAU76/J2000 heliocentric ecliptic osculating elements (au, days, deg.):
  EPOCH=  2458368.5 ! 2018-Sep-07.00 (TDB)         Residual RMS= .299          
   EC= .2816093255492492   QR= .7991213126369837   TP= 2458438.7854507864      
   OM= 166.9631715555783   W=  267.8210074013559   IN= 5.127543488636634       
  Equivalent ICRF heliocentric cartesian coordinates (au, au/d):
   X= 9.883258176612897E-01  Y=-2.654573099408967E-01  Z=-1.095366816313374E-01
  VX= 1.112505236628486E-04 VY= 1.667631342697191E-02 VZ= 5.559084906068471E-03
Asteroid physical parameters (km, seconds, rotational period in hours):        
   GM= n.a.                RAD= n.a.               ROTPER= n.a.                
   H= 27.9                 G= .150                 B-V= n.a.                   
                           ALBEDO= n.a.            STYP= n.a.                  
*******************************************************************************
 Date__(UT)__HR:MN     R.A._________(ICRF)_________DEC
******************************************************
$$SOE
 2018-Dec-18 01:54  m  13 24 44.045306 -14 39 40.82973
 2018-Dec-18 01:55  m  13 24 44.170898 -14 39 41.14971
 2018-Dec-18 01:56  m  13 24 44.296484 -14 39 41.46975
 2018-Dec-18 01:57  m  13 24 44.422062 -14 39 41.78985
 2018-Dec-18 01:58  m  13 24 44.547634 -14 39 42.11000
 2018-Dec-18 01:59  m  13 24 44.673198 -14 39 42.43021
 2018-Dec-18 02:00  m  13 24 44.798756 -14 39 42.75048
 2018-Dec-18 02:01  m  13 24 44.924306 -14 39 43.07080
 2018-Dec-18 02:02  m  13 24 45.049849 -14 39 43.39118
 2018-Dec-18 02:03  m  13 24 45.175385 -14 39 43.71162
 2018-Dec-18 02:04  m  13 24 45.300914 -14 39 44.03212
 2018-Dec-18 02:05  m  13 24 45.426435 -14 39 44.35267
 2018-Dec-18 02:06  m  13 24 45.551949 -14 39 44.67327
 2018-Dec-18 02:07  m  13 24 45.677455 -14 39 44.99394
 2018-Dec-18 02:08  m  13 24 45.802953 -14 39 45.31466
 2018-Dec-18 02:09  m  13 24 45.928444 -14 39 45.63543
 2018-Dec-18 02:10  m  13 24 46.053927 -14 39 45.95626
 2018-Dec-18 02:11  m  13 24 46.179403 -14 39 46.27715
 2018-Dec-18 02:12  m  13 24 46.304870 -14 39 46.59809
 2018-Dec-18 02:13  m  13 24 46.430330 -14 39 46.91909
 2018-Dec-18 02:14  m  13 24 46.555781 -14 39 47.24014
 2018-Dec-18 02:15  m  13 24 46.681225 -14 39 47.56125
 2018-Dec-18 02:16  m  13 24 46.806660 -14 39 47.88241
 2018-Dec-18 02:17  m  13 24 46.932087 -14 39 48.20363
 2018-Dec-18 02:18  m  13 24 47.057506 -14 39 48.52490
 2018-Dec-18 02:19  m  13 24 47.182917 -14 39 48.84623
 2018-Dec-18 02:20  m  13 24 47.308319 -14 39 49.16761
 2018-Dec-18 02:21  m  13 24 47.433712 -14 39 49.48905
 2018-Dec-18 02:22  m  13 24 47.559098 -14 39 49.81054
 2018-Dec-18 02:23  m  13 24 47.684474 -14 39 50.13209
 2018-Dec-18 02:24  m  13 24 47.809842 -14 39 50.45368
 2018-Dec-18 02:25  m  13 24 47.935201 -14 39 50.77534
 2018-Dec-18 02:26  m  13 24 48.060552 -14 39 51.09704
 2018-Dec-18 02:27  m  13 24 48.185893 -14 39 51.41880
 2018-Dec-18 02:28  m  13 24 48.311226 -14 39 51.74061
 2018-Dec-18 02:29  m  13 24 48.436550 -14 39 52.06248
 2018-Dec-18 02:30  m  13 24 48.561864 -14 39 52.38440
 2018-Dec-18 02:31  m  13 24 48.687170 -14 39 52.70637
 2018-Dec-18 02:32  m  13 24 48.812466 -14 39 53.02840
 2018-Dec-18 02:33  m  13 24 48.937753 -14 39 53.35048
 2018-Dec-18 02:34  m  13 24 49.063031 -14 39 53.67261
 2018-Dec-18 02:35  m  13 24 49.188299 -14 39 53.99479
 2018-Dec-18 02:36  m  13 24 49.313558 -14 39 54.31702
 2018-Dec-18 02:37  m  13 24 49.438808 -14 39 54.63931
 2018-Dec-18 02:38  m  13 24 49.564048 -14 39 54.96165
 2018-Dec-18 02:39  m  13 24 49.689278 -14 39 55.28404
 2018-Dec-18 02:40  m  13 24 49.814499 -14 39 55.60648
 2018-Dec-18 02:41  m  13 24 49.939710 -14 39 55.92897
 2018-Dec-18 02:42  m  13 24 50.064911 -14 39 56.25152
 2018-Dec-18 02:43  m  13 24 50.190103 -14 39 56.57411
 2018-Dec-18 02:44  m  13 24 50.315284 -14 39 56.89676
 2018-Dec-18 02:45  m  13 24 50.440456 -14 39 57.21946
 2018-Dec-18 02:46  m  13 24 50.565617 -14 39 57.54221
 2018-Dec-18 02:47  m  13 24 50.690768 -14 39 57.86500
 2018-Dec-18 02:48  m  13 24 50.815910 -14 39 58.18785
 2018-Dec-18 02:49  m  13 24 50.941040 -14 39 58.51075
 2018-Dec-18 02:50  m  13 24 51.066161 -14 39 58.83370
 2018-Dec-18 02:51  m  13 24 51.191271 -14 39 59.15670
 2018-Dec-18 02:52  m  13 24 51.316371 -14 39 59.47975
 2018-Dec-18 02:53  m  13 24 51.441461 -14 39 59.80284
 2018-Dec-18 02:54  m  13 24 51.566540 -14 40 00.12599
 2018-Dec-18 02:55  m  13 24 51.691608 -14 40 00.44919
 2018-Dec-18 02:56  m  13 24 51.816666 -14 40 00.77243
 2018-Dec-18 02:57  m  13 24 51.941713 -14 40 01.09573
 2018-Dec-18 02:58  m  13 24 52.066749 -14 40 01.41907
 2018-Dec-18 02:59  m  13 24 52.191775 -14 40 01.74246
 2018-Dec-18 03:00  m  13 24 52.316789 -14 40 02.06590
 2018-Dec-18 03:01  m  13 24 52.441793 -14 40 02.38939
 2018-Dec-18 03:02  m  13 24 52.566786 -14 40 02.71292
 2018-Dec-18 03:03  m  13 24 52.691767 -14 40 03.03650
 2018-Dec-18 03:04  m  13 24 52.816738 -14 40 03.36013
 2018-Dec-18 03:05  m  13 24 52.941697 -14 40 03.68381
 2018-Dec-18 03:06  m  13 24 53.066645 -14 40 04.00753
 2018-Dec-18 03:07  m  13 24 53.191582 -14 40 04.33131
 2018-Dec-18 03:08  m  13 24 53.316508 -14 40 04.65512
 2018-Dec-18 03:09  m  13 24 53.441422 -14 40 04.97899
 2018-Dec-18 03:10  m  13 24 53.566325 -14 40 05.30290
 2018-Dec-18 03:11  m  13 24 53.691216 -14 40 05.62686
 2018-Dec-18 03:12  m  13 24 53.816096 -14 40 05.95086
 2018-Dec-18 03:13  m  13 24 53.940964 -14 40 06.27491
 2018-Dec-18 03:14  m  13 24 54.065820 -14 40 06.59901
 2018-Dec-18 03:15  m  13 24 54.190665 -14 40 06.92315
 2018-Dec-18 03:16  m  13 24 54.315498 -14 40 07.24733
 2018-Dec-18 03:17  m  13 24 54.440319 -14 40 07.57157
 2018-Dec-18 03:18  m  13 24 54.565128 -14 40 07.89584
 2018-Dec-18 03:19  m  13 24 54.689926 -14 40 08.22016
 2018-Dec-18 03:20  m  13 24 54.814711 -14 40 08.54453
 2018-Dec-18 03:21  m  13 24 54.939484 -14 40 08.86894
 2018-Dec-18 03:22  m  13 24 55.064246 -14 40 09.19339
 2018-Dec-18 03:23  m  13 24 55.188995 -14 40 09.51789
 2018-Dec-18 03:24  m  13 24 55.313732 -14 40 09.84243
 2018-Dec-18 03:25  m  13 24 55.438456 -14 40 10.16702
 2018-Dec-18 03:26  m  13 24 55.563169 -14 40 10.49164
 2018-Dec-18 03:27  m  13 24 55.687869 -14 40 10.81632
 2018-Dec-18 03:28  m  13 24 55.812556 -14 40 11.14103
 2018-Dec-18 03:29  m  13 24 55.937231 -14 40 11.46579
 2018-Dec-18 03:30  m  13 24 56.061894 -14 40 11.79059
 2018-Dec-18 03:31  m  13 24 56.186544 -14 40 12.11543
 2018-Dec-18 03:32  m  13 24 56.311181 -14 40 12.44031
 2018-Dec-18 03:33  m  13 24 56.435806 -14 40 12.76524
 2018-Dec-18 03:34  m  13 24 56.560418 -14 40 13.09021
 2018-Dec-18 03:35  m  13 24 56.685017 -14 40 13.41522
 2018-Dec-18 03:36  m  13 24 56.809604 -14 40 13.74027
 2018-Dec-18 03:37  m  13 24 56.934178 -14 40 14.06536
 2018-Dec-18 03:38  m  13 24 57.058738 -14 40 14.39049
 2018-Dec-18 03:39  m  13 24 57.183286 -14 40 14.71567
 2018-Dec-18 03:40  m  13 24 57.307821 -14 40 15.04088
 2018-Dec-18 03:41  m  13 24 57.432342 -14 40 15.36614
 2018-Dec-18 03:42  m  13 24 57.556851 -14 40 15.69143
 2018-Dec-18 03:43  m  13 24 57.681346 -14 40 16.01676
 2018-Dec-18 03:44  m  13 24 57.805829 -14 40 16.34214
 2018-Dec-18 03:45  m  13 24 57.930298 -14 40 16.66755
 2018-Dec-18 03:46  m  13 24 58.054753 -14 40 16.99300
 2018-Dec-18 03:47  m  13 24 58.179195 -14 40 17.31850
 2018-Dec-18 03:48  m  13 24 58.303624 -14 40 17.64403
 2018-Dec-18 03:49  m  13 24 58.428040 -14 40 17.96959
 2018-Dec-18 03:50  m  13 24 58.552442 -14 40 18.29520
 2018-Dec-18 03:51  m  13 24 58.676830 -14 40 18.62085
 2018-Dec-18 03:52  m  13 24 58.801205 -14 40 18.94653
 2018-Dec-18 03:53  m  13 24 58.925567 -14 40 19.27225
 2018-Dec-18 03:54  m  13 24 59.049914 -14 40 19.59801
 2018-Dec-18 03:55  m  13 24 59.174248 -14 40 19.92380
 2018-Dec-18 03:56  m  13 24 59.298568 -14 40 20.24964
